$$SOE
2459580.500000000, A.D. 2022-Jan-01 00:00:00.0000, 3.427426719873241E+08, 1.318147800284897E+08, 1.510274715650588E+07,
2459587.500000000, A.D. 2022-Jan-08 00:00:00.0000, 3.376676631775484E+08, 1.426585493953472E+08, 1.501860936356315E+07,
2459594.500000000, A.D. 2022-Jan-15 00:00:00.0000, 3.322607673070869E+08, 1.533619725766686E+08, 1.491970144187649E+07,
2459601.500000000, A.D. 2022-Jan-22 00:00:00.0000, 3.265256321150320E+08, 1.639137609048942E+08, 1.480604565935412E+07,
2459608.500000000, A.D. 2022-Jan-29 00:00:00.0000, 3.204663557844995E+08, 1.743027060529754E+08, 1.467768316855418E+07,
2459615.500000000, A.D. 2022-Feb-05 00:00:00.0000, 3.140874850815558E+08, 1.845177013041787E+08, 1.453467440797500E+07,
2459622.500000000, A.D. 2022-Feb-12 00:00:00.0000, 3.073940143678014E+08, 1.945477620306734E+08, 1.437709916959991E+07,
2459629.500000000, A.D. 2022-Feb-19 00:00:00.0000, 3.003913841204809E+08, 2.043820476554268E+08, 1.420505664460240E+07,
2459636.500000000, A.D. 2022-Feb-26 00:00:00.0000, 2.930854776168330E+08, 2.140098842781856E+08, 1.401866550601551E+07,
2459643.500000000, A.D. 2022-Mar-05 00:00:00.0000, 2.854826159199855E+08, 2.234207872484509E+08, 1.381806396123633E+07,
2459650.500000000, A.D. 2022-Mar-12 00:00:00.0000, 2.775895513749030E+08, 2.326044835159394E+08, 1.360340974673167E+07,
2459657.500000000, A.D. 2022-Mar-19 00:00:00.0000, 2.694134596809204E+08, 2.415509336803248E+08, 1.337488005908737E+07,
2459664.500000000, A.D. 2022-Mar-26 00:00:00.0000, 2.609619305679343E+08, 2.502503536267018E+08, 1.313267141860753E+07,
2459671.500000000, A.D. 2022-Apr-02 00:00:00.0000, 2.522429571583127E+08, 2.586932355831775E+08, 1.287699945387971E+07,
2459678.500000000, A.D. 2022-Apr-09 00:00:00.0000, 2.432649243112832E+08, 2.668703684989378E+08, 1.260809858244772E+07,
2459685.500000000, A.D. 2022-Apr-16 00:00:00.0000, 2.340365963431230E+08, 2.747728582911844E+08, 1.232622160820667E+07,
2459692.500000000, A.D. 2022-Apr-23 00:00:00.0000, 2.245671028974683E+08, 2.823921489368860E+08, 1.203163944031057E+07,
2459699.500000000, A.D. 2022-Apr-30 00:00:00.0000, 2.148659211418062E+08, 2.897200420619798E+08, 1.172464092277706E+07,
2459706.500000000, A.D. 2022-May-07 00:00:00.0000, 2.049428574168580E+08, 2.967487129663204E+08, 1.140553233495444E+07,
2459713.500000000, A.D. 2022-May-14 00:00:00.0000, 1.948080298046899E+08, 3.034707260324290E+08, 1.107463668509364E+07,
2459720.500000000, A.D. 2022-May-21 00:00:00.0000, 1.844718496618324E+08, 3.098790501889754E+08, 1.073229304711270E+07,
2459727.500000000, A.D. 2022-May-28 00:00:00.0000, 1.739450017230727E+08, 3.159670733928878E+08, 1.037885590882908E+07,
2459734.500000000, A.D. 2022-Jun-04 00:00:00.0000, 1.632384231457568E+08, 3.217286157489038E+08, 1.001469448378100E+07,
2459741.500000000, A.D. 2022-Jun-11 00:00:00.0000, 1.523632817381629E+08, 3.271579412088414E+08, 9.640191976933852E+06,
2459748.500000000, A.D. 2022-Jun-18 00:00:00.0000, 1.413309535143446E+08, 3.322497678130497E+08, 9.255744805499315E+06,
2459755.500000000, A.D. 2022-Jun-25 00:00:00.0000, 1.301529997123417E+08, 3.369992763997861E+08, 8.861761773450822E+06,
2459762.500000000, A.D. 2022-Jul-02 00:00:00.0000, 1.188411435200025E+08, 3.414021176861442E+08, 8.458663186365888E+06,
2459769.500000000, A.D. 2022-Jul-09 00:00:00.0000, 1.074072470110202E+08, 3.454544178785092E+08, 8.046879889808193E+06,
2459776.500000000, A.D. 2022-Jul-16 00:00:00.0000, 9.586328835167150E+07, 3.491527838880991E+08, 7.626852329245672E+06,
2459783.500000000, A.D. 2022-Jul-23 00:00:00.0000, 8.422133719767168E+07, 3.524943082261745E+08, 7.199029843512997E+06,
2459790.500000000, A.D. 2022-Jul-30 00:00:00.0000, 7.249352847531167E+07, 3.554765702262605E+08, 6.763869914763838E+06,
2459797.500000000, A.D. 2022-Aug-06 00:00:00.0000, 6.069203825433321E+07, 3.580976342623065E+08, 6.321837102751255E+06,
2459804.500000000, A.D. 2022-Aug-13 00:00:00.0000, 4.882906100031588E+07, 3.603560477426144E+08, 5.873401968005776E+06,
2459811.500000000, A.D. 2022-Aug-20 00:00:00.0000, 3.691678673683199E+07, 3.622508384039331E+08, 5.419040091360450E+06,
2459818.500000000, A.D. 2022-Aug-27 00:00:00.0000, 2.496737827630587E+07, 3.637815102223664E+08, 4.959231129625827E+06,
2459825.500000000, A.D. 2022-Sep-03 00:00:00.0000, 1.299294885577295E+07, 3.649480378887256E+08, 4.494457880913630E+06,
2459832.500000000, A.D. 2022-Sep-10 00:00:00.0000, 1.005540354434285E+06, 3.657508599389340E+08, 4.025205357845128E+06,
2459839.500000000, A.D. 2022-Sep-17 00:00:00.0000, -1.098289779488389E+07, 3.661908706076752E+08, 3.551959869568557E+06,
2459846.500000000, A.D. 2022-Sep-24 00:00:00.0000, -2.296052886466671E+07, 3.662694104258906E+08, 3.075208106153309E+06,
2459853.500000000, A.D. 2022-Oct-01 00:00:00.0000, -3.491564795608275E+07, 3.659882556136402E+08, 2.595436204556257E+06,
2459860.500000000, A.D. 2022-Oct-08 00:00:00.0000, -4.683669952323525E+07, 3.653496068682985E+08, 2.113128804305449E+06,
2459867.500000000, A.D. 2022-Oct-15 00:00:00.0000, -5.871229418180139E+07, 3.643560788309568E+08, 1.628768278715283E+06,
2459874.500000000, A.D. 2022-Oct-22 00:00:00.0000, -7.053122693940885E+07, 3.630106886303109E+08, 1.142834206024662E+06,
2459881.500000000, A.D. 2022-Oct-29 00:00:00.0000, -8.228249431699987E+07, 3.613168409873935E+08, 6.558026419687718E+05,
2459888.500000000, A.D. 2022-Nov-05 00:00:00.0000, -9.395530824248277E+07, 3.592783127094156E+08, 1.681452273260504E+05,
2459895.500000000, A.D. 2022-Nov-12 00:00:00.0000, -1.055391086631407E+08, 3.568992379311396E+08, -3.196715849065185E+05,
2459902.500000000, A.D. 2022-Nov-19 00:00:00.0000, -1.170235755835862E+08, 3.541840932331029E+08, -8.071871936709136E+05,
2459909.500000000, A.D. 2022-Nov-26 00:00:00.0000, -1.283986402637130E+08, 3.511376823204823E+08, -1.293947460819289E+06,
2459916.500000000, A.D. 2022-Dec-03 00:00:00.0000, -1.396544954143269E+08, 3.477651203313930E+08, -1.779505284339562E+06,
2459923.500000000, A.D. 2022-Dec-10 00:00:00.0000, -1.507816043546056E+08, 3.440718178714759E+08, -2.263421136036023E+06,
2459930.500000000, A.D. 2022-Dec-17 00:00:00.0000, -1.617707091218534E+08, 3.400634648249319E+08, -2.745263567772686E+06,
2459937.500000000, A.D. 2022-Dec-24 00:00:00.0000, -1.726128374443359E+08, 3.357460139477704E+08, -3.224609701698631E+06,
2459944.500000000, A.D. 2022-Dec-31 00:00:00.0000, -1.832993082442605E+08, 3.311256644183536E+08, -3.701045728663296E+06,
2459951.500000000, A.D. 2023-Jan-07 00:00:00.0000, -1.938217355775180E+08, 3.262088463713225E+08, -4.174167347856700E+06,
2459958.500000000, A.D. 2023-Jan-14 00:00:00.0000, -2.041720330104293E+08, 3.210022069732950E+08, -4.643579927584752E+06,
2459965.500000000, A.D. 2023-Jan-21 00:00:00.0000, -2.143424191099260E+08, 3.155125949237851E+08, -5.108898588348418E+06,
2459972.500000000, A.D. 2023-Jan-28 00:00:00.0000, -2.243254204122675E+08, 3.097470432286183E+08, -5.569748560750350E+06,
2459979.500000000, A.D. 2023-Feb-04 00:00:00.0000, -2.341138721227039E+08, 3.037127533144957E+08, -6.025765552361056E+06,
2459986.500000000, A.D. 2023-Feb-11 00:00:00.0000, -2.437009183865636E+08, 2.974170803341508E+08, -6.476595976302594E+06,
2459993.500000000, A.D. 2023-Feb-18 00:00:00.0000, -2.530800122388763E+08, 2.908675188753461E+08, -6.921897104279518E+06,
2460000.500000000, A.D. 2023-Feb-25 00:00:00.0000, -2.622449150156819E+08, 2.840716889434572E+08, -7.361337182532504E+06,
2460007.500000000, A.D. 2023-Mar-04 00:00:00.0000, -2.711896951717592E+08, 2.770373222653776E+08, -7.794595519894883E+06,
2460014.500000000, A.D. 2023-Mar-11 00:00:00.0000, -2.799087265224759E+08, 2.697722489409409E+08, -8.221362551998809E+06,
2460021.500000000, A.D. 2023-Mar-18 00:00:00.0000, -2.883966859079275E+08, 2.622843844139639E+08, -8.641339891487435E+06,
2460028.500000000, A.D. 2023-Mar-25 00:00:00.0000, -2.966485501202568E+08, 2.545817167328632E+08, -9.054240388223708E+06,
2460035.500000000, A.D. 2023-Apr-01 00:00:00.0000, -3.046595917130113E+08, 2.466722945071037E+08, -9.459788207759157E+06,
2460042.500000000, A.D. 2023-Apr-08 00:00:00.0000, -3.124253743512957E+08, 2.385642167938215E+08, -9.857718773104578E+06,
2460049.500000000, A.D. 2023-Apr-15 00:00:00.0000, -3.199417500832512E+08, 2.302656238168668E+08, -1.024777844781947E+07,
2460056.500000000, A.D. 2023-Apr-22 00:00:00.0000, -3.272048567613794E+08, 2.217846854731119E+08, -1.062972437746209E+07,
2460063.500000000, A.D. 2023-Apr-29 00:00:00.0000, -3.342111129094238E+08, 2.131295898766702E+08, -1.100332455665617E+07,
2460070.500000000, A.D. 2023-May-06 00:00:00.0000, -3.409572118296264E+08, 2.043085337144977E+08, -1.136835781552616E+07,
2460077.500000000, A.D. 2023-May-13 00:00:00.0000, -3.474401159640979E+08, 1.953297135132652E+08, -1.172461371037915E+07,
2460084.500000000, A.D. 2023-May-20 00:00:00.0000, -3.536570513117260E+08, 1.862013173185460E+08, -1.207189238171694E+07,
2460091.500000000, A.D. 2023-May-27 00:00:00.0000, -3.596055017425790E+08, 1.769315167484041E+08, -1.241000440151157E+07,
2460098.500000000, A.D. 2023-Jun-03 00:00:00.0000, -3.652832031860689E+08, 1.675284594397443E+08, -1.273877061499258E+07,
2460105.500000000, A.D. 2023-Jun-10 00:00:00.0000, -3.706881376992465E+08, 1.580002618657092E+08, -1.305802198224393E+07,
2460112.500000000, A.D. 2023-Jun-17 00:00:00.0000, -3.758185273525171E+08, 1.483550024541555E+08, -1.336759943433479E+07,
2460119.500000000, A.D. 2023-Jun-24 00:00:00.0000, -3.806728276362116E+08, 1.386007150506390E+08, -1.366735377010121E+07,
2460126.500000000, A.D. 2023-Jul-01 00:00:00.0000, -3.852497201562848E+08, 1.287453835397857E+08, -1.395714555020769E+07,
2460133.500000000, A.D. 2023-Jul-08 00:00:00.0000, -3.895481063140132E+08, 1.187969384314194E+08, -1.423684476887059E+07,
2460140.500000000, A.D. 2023-Jul-15 00:00:00.0000, -3.935671032681813E+08, 1.087632525666220E+08, -1.450633041876953E+07,
2460147.500000000, A.D. 2023-Jul-22 00:00:00.0000, -3.973060386766027E+08, 9.865213489605726E+07, -1.476549035768627E+07,
$$EOE